43257,IRIDIUM 150,2018,100.4,860.0,+,86.39,Active,1,LEO,USA,USA,Commercial/Government,Communications,Falcon,1 43257U 18030J   25100.51356004  .00000270  00000+0  89495-4 0  9992,2 43257  86.3917 111.3695 0002108  96.3406 263.8030 14.34220038368143,14.34220038,0.0002108,LEO
43258,IRIDIUM 143,2018,100.4,860.0,+,86.39,Active,1,LEO,USA,USA,Commercial/Government,Communications,Falcon,1 43258U 18030K   25100.63406700 -.00000003  00000+0 -80733-5 0  9998,2 43258  86.3922 111.3948 0001912 102.4565 257.6844 14.34217454368094,14.34217454,0.0001912,LEO
43478,IRIDIUM 161,2018,99.77,860.0,+,86.44,Active,1,LEO,USA,USA,Commercial/Government,Communications,Falcon,1 43478U 18047C   25100.82190966  .00000326  00000+0  91045-4 0  9998,2 43478  86.4436 269.1068 0002261  91.6073 268.5387 14.43279622362772,14.43279622,0.0002261,LEO
43479,IRIDIUM 152,2018,100.4,860.0,+,86.39,Active,1,LEO,USA,USA,Commercial/Government,Communications,Falcon,1 43479U 18047D   25101.16492911  .00000432  00000+0  14711-3 0  9994,2 43479  86.3912 268.8232 0002081  90.7059 269.4375 14.34217686360579,14.34217686,0.0002081,LEO
43480,IRIDIUM 147,2018,100.4,860.0,+,86.39,Active,1,LEO,USA,USA,Commercial/Government,Communications,Falcon,1 43480U 18047E   25100.82243370  .00000092  00000+0  25832-4 0  9990,2 43480  86.3911 268.9641 0002348  91.4478 268.6987 14.34218100360510,14.342181,0.0002348,LEO
43481,IRIDIUM 110,2018,100.4,860.0,+,86.39,Active,1,LEO,USA,USA,Commercial/Government,Communications,Falcon,1 43481U 18047F   25100.82877484 -.00000021  00000+0 -14680-4 0  9993,2 43481  86.3914 269.0423 0002265  80.8841 279.2610 14.34217161360504,14.34217161,0.0002265,LEO
43482,IRIDIUM 162,2018,99.77,860.0,+,86.44,Active,1,LEO,USA,USA,Commercial/Government,Communications,Falcon,1 43482U 18047G   25100.53826262  .00000346  00000+0  96743-4 0  9998,2 43482  86.4434 269.1216 0002025  83.9269 276.2163 14.43282381362728,14.43282381,0.0002025,LEO
43569,IRIDIUM 160,2018,100.4,860.0,+,86.4,Active,1,LEO,USA,USA,Commercial/Government,Communications,Falcon,1 43569U 18061A   25101.12345187  .00000604  00000+0  20850-3 0  9990,2 43569  86.3970 237.2799 0002287  89.1189 271.0269 14.34220888351440,14.34220888,0.0002287,LEO
